Cluster,StoreNumber,StoreName,City,Zip,State,Grade,StoreFormat,Climate,Region,Latitude,Longitude,TotalDemandAmt,TotalNetAmt
2,1820,VA BEACH TOWN CTR.  ,VIRGINIA BEACH,23462,VA,C2,LIFESTYLE CENTER,COLD,EAST COAST-MID-ATLANTIC DISTRICT,36.8423156,-76.1329993,5592894.49,3392698.72
2,1822,"ANNAPOLIS, MD  MALL  ",ANNAPOLIS,21401,MD,B2,LIFESTYLE CENTER,COLD,EAST COAST-MID-ATLANTIC DISTRICT,38.9901729,-76.5430742,6300551.41,3862859.56
2,1825,BALTIMORE HARBOR E.  ,BALTIMORE,21202,MD,F,LIFESTYLE CENTER,COLD,EAST COAST-MID-ATLANTIC DISTRICT,39.2828892,-76.5997049,11793446.96,7114634.71
2,1826,"BRIDGEWATER, NJ  ",BRIDGEWATER,8807,NJ,F,TRADITIONAL MALL,COLD,EAST COAST-NORTHEAST,40.5858311,-74.6193571,14995018.11,8556887.45
2,1827,"PROVIDENCE, RI  ",PROVIDENCE,2903,RI,C2,TRADITIONAL MALL,COLD,EAST COAST-NEW ENGLAND,41.8280252,-71.4159517,6338493.44,3927025.42
2,1830,WASHINGTON DC M ST.  ,WASHINGTON,20007,DC,A1,METRO,COLD,EAST COAST-MID-ATLANTIC DISTRICT,38.9053685,-77.0595269,30120258.08,17389094.09
2,1842,"DANBURY, CT  ",DANBURY,6810,CT,C2,TRADITIONAL MALL,COLD,EAST COAST-NEW ENGLAND,41.3800517,-73.4817327,9417606.35,5543117.17
2,1852,"WESTPORT, CT  ",WESTPORT,6880,CT,A1,METRO,COLD,EAST COAST-NEW ENGLAND,41.1384543,-73.3430989,14022398.73,8260814.26
2,1855,PRINCETON MARKETFAIR  ,PRINCETON,8540,NJ,C3,LIFESTYLE CENTER,COLD,EAST COAST-NORTHEAST,40.314829,-74.660967,10839546.95,6141426.86
2,857,BUFFALO NY WALDEN GAL  ,BUFFALO,14225,NY,B2,TRADITIONAL MALL,COLD,CENTRAL-MID-WEST DISTRICT,42.9135693,-78.7633117,4858837.96,2793672.61
2,861,CHICAGO SOUTHPORT AV  ,CHICAGO,60657,IL,F,METRO,COLD,CENTRAL-GREATER CHICAGO,41.9448792,-87.6636988,35589040.84,19787287.5
2,1835,"SKOKIE, IL  ",SKOKIE,60077,IL,B3,TRADITIONAL MALL,COLD,CENTRAL-GREATER CHICAGO,42.0615141,-87.7490376,36517199.19,20179144.03
2,806,"ARDMORE, PA SUBURB SQ  ",ARDMORE,19003,PA,F,LIFESTYLE CENTER,COLD,EAST COAST-NORTHEAST,40.0083372,-75.2889406,36056361.48,21671771.76
2,811,"CHICAGO, IL MILWAUKEE  ",CHICAGO,60642,IL,F,METRO,COLD,CENTRAL-GREATER CHICAGO,41.9083686,-87.6747418,34964813.3,19564398.66
2,1808,COLUMBUS OH  EASTON  ,COLUMBUS,43219,OH,B3,LIFESTYLE CENTER,COLD,CENTRAL-MID-WEST DISTRICT,40.0519492,-82.9139101,9153038.18,5337385.86
2,839,PITTSBURGH PA  BAKERY  ,PITTSBURGH,15206,PA,F,METRO,COLD,CENTRAL-MID-WEST DISTRICT,40.4569922,-79.9171553,12466455.12,7436828
2,6032,"FP MOV NEWTOWN, PA  ",NEWTOWN,18940,PA,UNKNOWN,UNKNOWN,,EAST COAST-MVMT - EAST COAST,40.2336182,-74.9399553,15763459.38,9635082.96
2,1848,"OAKBROOK CTR, IL  ",OAK BROOK,60523,IL,B2,TRADITIONAL MALL,COLD,CENTRAL-GREATER CHICAGO,41.8516507,-87.9525153,38995258.26,21997672.38
2,1851,CHICAGO RANDOLPH ST  ,CHICAGO,60607,IL,B2,METRO,COLD,CENTRAL-GREATER CHICAGO,41.8839585,-87.6547598,33748637.32,18877105.22
2,6007,FP MOV KING PRUSSIA  ,KING OF PRUSSIA,19406,PA,UNKNOWN,UNKNOWN,,EAST COAST-MVMT - EAST COAST,40.0883703,-75.3915726,34292769.5,20563865.22
2,6016,FP MOV WASHINGTON DC  ,WASHINGTON,20007,DC,UNKNOWN,UNKNOWN,,EAST COAST-MVMT - EAST COAST,38.9043899,-77.0624277,30184509.42,17415656.01
2,6018,FP MOV PITTSBURGH PA  ,PITTSBURGH,15237,PA,UNKNOWN,UNKNOWN,,EAST COAST-MVMT - EAST COAST,40.5441932,-80.0071943,12152423.8,7207831.64
2,1854,"BROOKFIELD, WI  ",BROOKFIELD,53045,WI,C3,LIFESTYLE CENTER,COLD,CENTRAL-GREATER CHICAGO,43.0340209,-88.1630848,6896285.78,3996386.73
2,804,"KING OF PRUSSIA, PA  ",KING OF PRUSSIA,19406,PA,A1,TRADITIONAL MALL,COLD,EAST COAST-NORTHEAST,40.0902596,-75.3843108,34399803.25,20633313.61
2,855,CHICAGO WATER TOWER  ,CHICAGO,60611,IL,F,TRADITIONAL MALL,COLD,CENTRAL-GREATER CHICAGO,41.8979303,-87.6228927,32724356.11,18304341.7
2,856,"TROY, MI SOMERSET COL  ",TROY,48084,MI,F,TRADITIONAL MALL,COLD,CENTRAL-GREATER CHICAGO,42.5598057,-83.1838968,13774796.4,7967371.74
2,858,"PHILADELPHIA, WALNUT  ",PHILADELPHIA,19103,PA,A3,METRO,COLD,EAST COAST-NORTHEAST,39.9497371,-75.1688341,33920684.88,20553716.68
2,865,"VICTOR, NY  EASTVIEW  ",VICTOR,14564,NY,C3,TRADITIONAL MALL,COLD,CENTRAL-MID-WEST DISTRICT,43.0290737,-77.4432825,4336141.61,2487178.31
2,871,WOODMERE OH   ETON  ,WOODMERE,44122,OH,F,LIFESTYLE CENTER,COLD,CENTRAL-MID-WEST DISTRICT,41.46308,-81.4776192,8328699.49,4918106.47
2,1813,PITTSBURGH ROSS PARK  ,PITTSBURGH,15237,PA,B2,TRADITIONAL MALL,COLD,CENTRAL-MID-WEST DISTRICT,40.5439917,-80.0074183,12179025.9,7224029.54
2,6004,FP MOV CHICAGO  ,CHICAGO,60622,IL,UNKNOWN,UNKNOWN,,EAST COAST-MVMT - EAST COAST,41.9092921,-87.6761681,35023422.46,19596014.38
2,1875,"ALBUQUERQUE, NM  ",ALBUQUERQUE,87110,NM,F,METRO,,CENTRAL-MOUNTAIN DISTRICT,35.1040556,-106.5667564,2999667.94,1913565.51
2,6021,FP MOV HUNTINGTN STN  ,HUNTINGTON STATION,11746,NY,UNKNOWN,UNKNOWN,,EAST COAST-MVMT - EAST COAST,40.8202417,-73.4093651,25389400.49,14412363.86
2,6023,FP MOV ORANGE VILLAG  ,ORANGE VILLAGE,44122,OH,UNKNOWN,UNKNOWN,,EAST COAST-MVMT - EAST COAST,41.4525085,-81.4867335,8440987.77,4991627.93
2,803,"SHORT HILLS, NJ  MALL  ",SHORT HILLS,7078,NJ,A2,TRADITIONAL MALL,COLD,EAST COAST-NORTHEAST,40.7408743,-74.3642457,32516578.92,18604678.27
2,805,MCLEAN VA TYSONS CRNR  ,MCLEAN,22102,VA,A2,TRADITIONAL MALL,COLD,EAST COAST-MID-ATLANTIC DISTRICT,38.9171264,-77.2222575,31477756.38,18170143.95
2,843,SHREWSBURY NJ  GROVE  ,SHREWSBURY,7702,NJ,A3,LIFESTYLE CENTER,COLD,EAST COAST-NORTHEAST,40.3336102,-74.0636514,16136216.14,9228552.22
2,847,FARMINGTON CT WSTFRMS  ,FARMINGTON,6032,CT,F,TRADITIONAL MALL,COLD,EAST COAST-NEW ENGLAND,41.7223738,-72.764367,6190439.57,3614669.25
2,848,"TOWSON, MD  TOWN CTR.  ",TOWSON,21286,MD,C2,TRADITIONAL MALL,COLD,EAST COAST-MID-ATLANTIC DISTRICT,39.4021322,-76.6005102,10011261.61,6080132.9
2,870,WOODCLIFFLAKE NJ TICE  ,WOODCLIFF LAKE,7677,NJ,F,LIFESTYLE CENTER,COLD,EAST COAST-NORTHEAST,41.0410579,-74.075025,32002785.01,18360381.66
2,872,"HUNTINGTON STA., NY  ",HUNTINGTON STATION,11746,NY,F,TRADITIONAL MALL,COLD,EAST COAST-NEW ENGLAND,40.8202417,-73.4093651,25389400.49,14412363.86
2,1801,"BETHESDA,MD MONTGMRY  ",BETHESDA,20817,MD,C2,TRADITIONAL MALL,COLD,EAST COAST-MID-ATLANTIC DISTRICT,39.0241378,-77.1459998,30224052.07,17291427.38
2,1815,WHITEPLAINS WSTCHSTR  ,WHITE PLAINS,10601,NY,A3,TRADITIONAL MALL,COLD,EAST COAST-NEW ENGLAND,41.0312752,-73.7591855,29638788.13,17135809.14
2,1816,RICHMOND  SHORT PUMP  ,RICHMOND,23233,VA,A3,TRADITIONAL MALL,COLD,EAST COAST-MID-ATLANTIC DISTRICT,37.6561015,-77.6189434,7928506.68,4909859.68